Satellite: CO-57
Catalog number: 27848
Epoch time:      14197.51253795
Element set:     912
Inclination:      098.7077 deg
RA of node:       205.5885 deg
Eccentricity:    0.0009624
Arg of perigee:   190.2067 deg
Mean anomaly:     323.3038 deg
Mean motion:   14.21211095 rev/day
Decay rate:       1.16e-06 rev/day^2
Epoch rev:           57266
Checksum:              321

Satellite: AO-51
Catalog number: 28375
Epoch time:      14198.40274299
Element set:     888
Inclination:      098.2514 deg
RA of node:       144.2868 deg
Eccentricity:    0.0081850
Arg of perigee:   260.7462 deg
Mean anomaly:     098.4464 deg
Mean motion:   14.41403560 rev/day
Decay rate:        4.3e-07 rev/day^2
Epoch rev:           52825
Checksum:              329

Satellite: CP3
Catalog number: 31129
Epoch time:      14197.93798442
Element set:     797
Inclination:      097.9355 deg
RA of node:       174.4169 deg
Eccentricity:    0.0096784
Arg of perigee:   278.2288 deg
Mean anomaly:     101.1157 deg
Mean motion:   14.54753326 rev/day
Decay rate:       2.74e-06 rev/day^2
Epoch rev:           38436
Checksum:              353

Satellite: CO-65
Catalog number: 32785
Epoch time:      14198.13490733
Element set:       3
Inclination:      097.6976 deg
RA of node:       248.4455 deg
Eccentricity:    0.0015278
Arg of perigee:   092.6077 deg
Mean anomaly:     290.5194 deg
Mean motion:   14.85388928 rev/day
Decay rate:       5.55e-06 rev/day^2
Epoch rev:           33647
Checksum:              356

Satellite: PRISM
Catalog number: 33493
Epoch time:      14198.77866992
Element set:     111
Inclination:      098.2507 deg
RA of node:       015.7338 deg
Eccentricity:    0.0017547
Arg of perigee:   349.8289 deg
Mean anomaly:     010.2539 deg
Mean motion:   14.89624777 rev/day
Decay rate:      2.867e-05 rev/day^2
Epoch rev:           29673
Checksum:              360

Satellite: SOHLA-1
Catalog number: 33496
Epoch time:      14198.11911718
Element set:     403
Inclination:      098.1731 deg
RA of node:       319.1283 deg
Eccentricity:    0.0007469
Arg of perigee:   141.5095 deg
Mean anomaly:     271.1569 deg
Mean motion:   14.70839135 rev/day
Decay rate:       1.54e-06 rev/day^2
Epoch rev:           29391
Checksum:              308

Satellite: TISAT-1
Catalog number: 36799
Epoch time:      14198.79441585
Element set:     373
Inclination:      098.0182 deg
RA of node:       291.0235 deg
Eccentricity:    0.0012624
Arg of perigee:   217.0670 deg
Mean anomaly:     142.9594 deg
Mean motion:   14.85802538 rev/day
Decay rate:      2.498e-05 rev/day^2
Epoch rev:           21726
Checksum:              330

Satellite: STUDSAT
Catalog number: 36801
Epoch time:      14198.82495279
Element set:     855
Inclination:      098.0355 deg
RA of node:       299.7058 deg
Eccentricity:    0.0009350
Arg of perigee:   187.4057 deg
Mean anomaly:     287.2746 deg
Mean motion:   14.97231707 rev/day
Decay rate:      4.154e-05 rev/day^2
Epoch rev:           21771
Checksum:              341

Satellite: ALMASAT-1
Catalog number: 38078
Epoch time:      14198.48632323
Element set:      84
Inclination:      069.4691 deg
RA of node:       346.1110 deg
Eccentricity:    0.0588353
Arg of perigee:   351.4355 deg
Mean anomaly:     058.9744 deg
Mean motion:   14.51672952 rev/day
Decay rate:     1.3108e-04 rev/day^2
Epoch rev:           12603
Checksum:              314

Satellite: XATCOBEO
Catalog number: 38082
Epoch time:      14198.86105414
Element set:     409
Inclination:      069.4309 deg
RA of node:       228.5573 deg
Eccentricity:    0.0164647
Arg of perigee:   285.8621 deg
Mean anomaly:     129.1712 deg
Mean motion:   15.69168265 rev/day
Decay rate:    2.08293e-03 rev/day^2
Epoch rev:           12918
Checksum:              332

Satellite: CUBEBUG-1
Catalog number: 39153
Epoch time:      14198.75990813
Element set:     304
Inclination:      098.0419 deg
RA of node:       279.0005 deg
Eccentricity:    0.0016835
Arg of perigee:   251.8555 deg
Mean anomaly:     108.0794 deg
Mean motion:   14.77792146 rev/day
Decay rate:      1.379e-05 rev/day^2
Epoch rev:            6607
Checksum:              327

Satellite: ESTCUBE-1
Catalog number: 39161
Epoch time:      14198.78452123
Element set:     295
Inclination:      098.0972 deg
RA of node:       279.4584 deg
Eccentricity:    0.0008643
Arg of perigee:   304.6173 deg
Mean anomaly:     055.4188 deg
Mean motion:   14.70059991 rev/day
Decay rate:      1.049e-05 rev/day^2
Epoch rev:            6409
Checksum:              329

Satellite: DUCHIFAT-1
Catalog number: 40021
Epoch time:      14198.80202785
Element set:      77
Inclination:      097.9816 deg
RA of node:       093.5027 deg
Eccentricity:    0.0013552
Arg of perigee:   193.1174 deg
Mean anomaly:     166.9684 deg
Mean motion:   14.85389248 rev/day
Decay rate:      2.206e-05 rev/day^2
Epoch rev:             412
Checksum:              303

Satellite: NANOSATCBR1
Catalog number: 40024
Epoch time:      14198.66898208
Element set:      73
Inclination:      097.9812 deg
RA of node:       093.3586 deg
Eccentricity:    0.0012377
Arg of perigee:   192.3646 deg
Mean anomaly:     167.7179 deg
Mean motion:   14.85292748 rev/day
Decay rate:      2.101e-05 rev/day^2
Epoch rev:             410
Checksum:              317

Satellite: DTUSAT-2
Catalog number: 40030
Epoch time:      14198.74351175
Element set:      75
Inclination:      097.9795 deg
RA of node:       093.4139 deg
Eccentricity:    0.0012017
Arg of perigee:   184.3334 deg
Mean anomaly:     175.7781 deg
Mean motion:   14.84901141 rev/day
Decay rate:      1.613e-05 rev/day^2
Epoch rev:             412
Checksum:              285

Satellite: ANTELSAT
Catalog number: 40034
Epoch time:      14198.66243214
Element set:      69
Inclination:      097.9784 deg
RA of node:       092.7395 deg
Eccentricity:    0.0062847
Arg of perigee:   108.9440 deg
Mean anomaly:     251.8567 deg
Mean motion:   14.71231772 rev/day
Decay rate:      1.438e-05 rev/day^2
Epoch rev:             408
Checksum:              314

/EX
SB KEPS @ AMSAT  $ORB14198.W
Orbital Elements  14198.WEATHER

HR AMSAT ORBITAL ELEMENTS FOR WEATHER SATELLITES
FROM WA5QGD FORT WORTH,TX July 17, 2014
BID: ORB14198.W
TO ALL RADIO AMATEURS BT

Satellite: MET-2/21
Catalog number: 22782
Epoch time:      14198.45410399
Element set:     111
Inclination:      082.5508 deg
RA of node:       149.2921 deg
Eccentricity:    0.0022560
Arg of perigee:   176.5275 deg
Mean anomaly:     323.1772 deg
Mean motion:   13.83740475 rev/day
Decay rate:        5.7e-07 rev/day^2
Epoch rev:            5430
Checksum:              293

