CO-57
1 27848U 03031J   14197.51253795  .00000116  00000-0  73600-4 0  9128
2 27848 098.7077 205.5885 0009624 190.2067 323.3038 14.21211095572662
AO-51
1 28375U 04025K   14198.40274299  .00000043  00000-0  26029-4 0  8883
2 28375 098.2514 144.2868 0081850 260.7462 098.4464 14.41403560528253
CP3
1 31129U 07012N   14197.93798442  .00000274  00000-0  70651-4 0  7976
2 31129 097.9355 174.4169 0096784 278.2288 101.1157 14.54753326384369
CO-65
1 32785U 08021C   14198.13490733  .00000555  00000-0  70364-4 0    34
2 32785 097.6976 248.4455 0015278 092.6077 290.5194 14.85388928336476
PRISM
1 33493U 09002B   14198.77866992  .00002867  00000-0  30565-3 0  1111
2 33493 098.2507 015.7338 0017547 349.8289 010.2539 14.89624777296731
SOHLA-1
1 33496U 09002E   14198.11911718  .00000154  00000-0  33425-4 0  4039
2 33496 098.1731 319.1283 0007469 141.5095 271.1569 14.70839135293910
TISAT-1
1 36799U 10035E   14198.79441585  .00002498  00000-0  29326-3 0  3733
2 36799 098.0182 291.0235 0012624 217.0670 142.9594 14.85802538217260
STUDSAT
1 36801U 10035G   14198.82495279  .00004154  00000-0  36393-3 0  8558
2 36801 098.0355 299.7058 0009350 187.4057 287.2746 14.97231707217714
ALMASAT-1
1 38078U 12006B   14198.48632323  .00013108  00000-0  27023-3 0   844
2 38078 069.4691 346.1110 0588353 351.4355 058.9744 14.51672952126038
XATCOBEO
1 38082U 12006F   14198.86105414  .00208293  16676-4  80366-3 0  4098
2 38082 069.4309 228.5573 0164647 285.8621 129.1712 15.69168265129189
CUBEBUG-1
1 39153U 13018D   14198.75990813  .00001379  00000-0  19908-3 0  3049
2 39153 098.0419 279.0005 0016835 251.8555 108.0794 14.77792146 66077
ESTCUBE-1
1 39161U 13021C   14198.78452123  .00001049  00000-0  18288-3 0  2955
2 39161 098.0972 279.4584 0008643 304.6173 055.4188 14.70059991 64096
DUCHIFAT-1
1 40021U 14033M   14198.80202785  .00002206  00000-0  26230-3 0   776
2 40021 097.9816 093.5027 0013552 193.1174 166.9684 14.85389248  4126
NANOSATCBR1
1 40024U 14033Q   14198.66898208  .00002101  00000-0  25077-3 0   732
2 40024 097.9812 093.3586 0012377 192.3646 167.7179 14.85292748  4106
DTUSAT-2
1 40030U 14033W   14198.74351175  .00001613  00000-0  19581-3 0   757
2 40030 097.9795 093.4139 0012017 184.3334 175.7781 14.84901141  4127
ANTELSAT
1 40034U 14033AA  14198.66243214  .00001438  00000-0  23428-3 0   699
2 40034 097.9784 092.7395 0062847 108.9440 251.8567 14.71231772  4086
MET-2/21
1 22782U 93055A   14198.45410399  .00000057  00000-0  38100-4 0  1115
2 22782 082.5508 149.2921 0022560 176.5275 323.1772 13.83740475 54306
